GOES 1 (SMS-C) [-]      
1 08366U 75100A   23017.27447414 -.00000143  00000+0  00000+0 0  9999
2 08366   7.7558 293.0375 0002363 314.8932 236.7453  1.00235674172705
GOES 2 [-]              
1 10061U 77048A   23016.80988615 -.00000194  00000+0  00000+0 0  9994
2 10061   9.3648 304.8587 0012539  25.1747 189.2841  0.99396431 33879
GOES 3 [-]              
1 10953U 78062A   23016.13442201 -.00000207  00000+0  00000+0 0  9998
2 10953   9.7140 309.5120 0000888 132.3304  28.5187  0.99361474116137
GOES 4 [-]              
1 11964U 80074A   23016.34297365 -.00000041  00000+0  00000+0 0  9995
2 11964  10.6883 313.3425 0032272  77.4633 121.8904  0.99227852115057
GOES 5 [-]              
1 12472U 81049A   23016.27493186 -.00000263  00000+0  00000+0 0  9990
2 12472  11.5891 324.8703 0000795 273.2780 268.4739  1.00256125110339
GOES 6 [-]              
1 14050U 83041A   23016.84630226 -.00000225  00000+0  00000+0 0  9997
2 14050  12.1791 330.2189 0002546 156.9442 213.7809  1.00243296203515
GOES 7 [-]              
1 17561U 87022A   23017.28467245 -.00000278  00000+0  00000+0 0  9996
2 17561  14.0581 346.8190 0004245  54.2666 138.2530  0.99904512114520
GOES 8 [-]              
1 23051U 94022A   23016.65354234 -.00000020  00000+0  00000+0 0  9993
2 23051  13.3577  22.6895 0004524  17.1393 344.0153  0.98905024111796
GOES 9 [-]              
1 23581U 95025A   23016.61876352  .00000004  00000+0  00000+0 0  9992
2 23581  12.8535  23.0987 0004192 117.7984  55.4596  0.98799463100434
GOES 10 [-]             
1 24786U 97019A   23016.88971039 -.00000290  00000+0  00000+0 0  9990
2 24786  11.6610  29.3523 0026985 208.0017 337.2477  0.99126143 93703
GOES 11 [-]             
1 26352U 00022A   23006.96351337 -.00000221  00000+0  00000+0 0  9994
2 26352   9.1149  57.6931 0002528 218.3131 163.0809  0.99045202 40025
GOES 12 [-]             
1 26871U 01031A   23016.56114749 -.00000128  00000+0  00000+0 0  9998
2 26871   9.9001  46.7763 0005238 306.2793 253.8606  0.99135948 78391
EWS-G1 (GOES 13) [+]    
1 29155U 06018A   23016.87445653  .00000058  00000+0  00000+0 0  9992
2 29155   1.1265  92.8679 0004683 163.6621 235.8420  1.00265412 30879
GOES 14 [B]             
1 35491U 09033A   23017.48689513 -.00000072  00000+0  00000+0 0  9992
2 35491   0.0785 233.1362 0016814 354.7932 319.5644  1.00268768 49651
GOES 15 [B]             
1 36411U 10008A   23016.69324059  .00000076  00000+0  00000+0 0  9995
2 36411   0.0330 308.2164 0002662 242.5404  46.5480  1.00266631 47153
GOES 16 [+]             
1 41866U 16071A   23017.49273519 -.00000228  00000+0  00000+0 0  9994
2 41866   0.0828 255.4255 0000660  93.6710 229.7394  1.00271376 22604
GOES 17 [+]             
1 43226U 18022A   23010.68452196  .00000113  00000+0  00000+0 0  9990
2 43226   0.0067 160.8990 0000528 160.1134 258.0183  1.00273520 17865
GOES 18 [+]             
1 51850U 22021A   23017.38313286  .00000117  00000+0  00000+0 0  9990
2 51850   0.0281 187.2585 0000266 122.2525 168.0062  1.00271354  3303
